Delivered-To: ivangayton@gmail.com
Received: by 10.25.22.69 with SMTP id m66csp576286lfi;
        Sun, 19 Jul 2015 04:57:13 -0700 (PDT)
X-Received: by 10.70.55.1 with SMTP id n1mr46857876pdp.21.1437305278994;
        Sun, 19 Jul 2015 04:27:58 -0700 (PDT)
Return-Path: <horizons@ssd.jpl.nasa.gov>
Received: from ssd.jpl.nasa.gov (ssd.jpl.nasa.gov. [128.149.23.134])
        by mx.google.com with ESMTPS id ma3si28407505pdb.163.2015.07.19.04.27.58
        for <ivangayton@gmail.com>
        (version=TLSv1 cipher=RC4-SHA bits=128/128);
        Sun, 19 Jul 2015 04:27:58 -0700 (PDT)
Received-SPF: pass (google.com: best guess record for domain of horizons@ssd.jpl.nasa.gov designates 128.149.23.134 as permitted sender) client-ip=128.149.23.134;
Authentication-Results: mx.google.com;
       spf=pass (google.com: best guess record for domain of horizons@ssd.jpl.nasa.gov designates 128.149.23.134 as permitted sender) smtp.mail=horizons@ssd.jpl.nasa.gov
Received: from ssd.jpl.nasa.gov (localhost.localdomain [127.0.0.1])
	by ssd.jpl.nasa.gov (8.13.8/8.13.8) with ESMTP id t6JBRvYV026246
	for <ivangayton@gmail.com>; Sun, 19 Jul 2015 04:27:57 -0700
Received: (from horizons@localhost)
	by ssd.jpl.nasa.gov (8.13.8/8.13.8/Submit) id t6JBRvTX026240
	for ivangayton@gmail.com; Sun, 19 Jul 2015 04:27:57 -0700
Date: Sun, 19 Jul 2015 04:27:57 -0700
From: Horizons Ephemeris System <horizons@ssd.jpl.nasa.gov>
Message-Id: <201507191127.t6JBRvTX026240@ssd.jpl.nasa.gov>
Subject: MAJOR BODY #C(500@0)_T(613) (1/1)

 Automated mail xmit by MAIL_REQUEST, PID=   20220 Sun Jul 19 04:27:57 2015
++++++++++++++++++++++++++++++++ (part 1 of 1)  +++++++++++++++++++++++++++++++

*******************************************************************************
 Revised: Mar 02, 2015              Telesto  / (Saturn)                     613
                           http://ssd.jpl.nasa.gov/?sat_phys_par
                             http://ssd.jpl.nasa.gov/?sat_elem

 SATELLITE PHYSICAL PROPERTIES:
  Radius (km)             = 15 x 12.5 x 7.5 Density (g cm^-3)   =  1.0
  Mass (10^22 g)          = 0.0007194       Geometric Albedo    =  1.0  
  GM (km^3/s^2)           = 0.00048         V(1,0)              = +9.1 

 SATELLITE ORBITAL DATA (mean values with respect to local Laplace plane):
  Semi-major axis, a (km) = 294.710(10^3)   Orbital period      = 1.887802 d
  Eccentricity, e         = 0.0002          Rotational period   = 
  Inclination, i  (deg)   = 1.180   

 NOTE: The IAU rotational spin-pole model (defining latitude and logitude) is 
       valid only near the time of the 1981 Voyager flybys; an updated
       Cassini-based coordinate grid model is not yet published by the IAU.
*******************************************************************************
 
 
*******************************************************************************
Ephemeris / MAIL_REQUEST Sun Jul 19 04:27:57 2015 Pasadena, USA  / Horizons    
*******************************************************************************
Target body name: Telesto (613)                   {source: SAT375}
Center body name: Solar System Barycenter (0)     {source: DE-0431LE-0431}
Center-site name: BODY CENTER
*******************************************************************************
Start time      : A.D. 2015-Jul-19 00:00:00.0000 CT 
Stop  time      : A.D. 2015-Jul-19 00:00:00.0000 CT 
Step-size       : DISCRETE TIME-LIST
*******************************************************************************
Center geodetic : 0.00000000,0.00000000,0.0000000 {E-lon(deg),Lat(deg),Alt(km)}
Center cylindric: 0.00000000,0.00000000,0.0000000 {E-lon(deg),Dxy(km),Dz(km)}
Center radii    : (undefined)                                                  
Output units    : KM-S                                                         
Output format   : 02
Reference frame : ICRF/J2000.0                                                 
Output type     : GEOMETRIC cartesian states
Coordinate systm: Ecliptic and Mean Equinox of Reference Epoch                 
*******************************************************************************
JDCT ,   , X, Y, Z, VX, VY, VZ,
*******************************************************************************
$$SOE
2457222.500000000, A.D. 2015-Jul-19 00:00:00.0000, -6.740403677110584E+08, -1.332321996000928E+09,  5.001342666872394E+07,  9.391237259245608E+00, -1.449666319430228E+01,  4.754211339263049E+00,
$$EOE
*******************************************************************************
Coordinate system description:

  Ecliptic and Mean Equinox of Reference Epoch

    Reference epoch: J2000.0
    xy-plane: plane of the Earth's orbit at the reference epoch
    x-axis  : out along ascending node of instantaneous plane of the Earth's
              orbit and the Earth's mean equator at the reference epoch
    z-axis  : perpendicular to the xy-plane in the directional (+ or -) sense
              of Earth's north pole at the reference epoch.

Symbol meaning  

    JDCT     Epoch Julian Date, Coordinate Time
      X      x-component of position vector (km)                               
      Y      y-component of position vector (km)                               
      Z      z-component of position vector (km)                               
      VX     x-component of velocity vector (km/sec)                           
      VY     y-component of velocity vector (km/sec)                           
      VZ     z-component of velocity vector (km/sec)                           

Geometric states/elements have no aberration corrections applied.

 Computations by ...
     Solar System Dynamics Group, Horizons On-Line Ephemeris System
     4800 Oak Grove Drive, Jet Propulsion Laboratory
     Pasadena, CA  91109   USA
     Information: http://ssd.jpl.nasa.gov/
     Connect    : telnet://ssd.jpl.nasa.gov:6775  (via browser)
                  telnet ssd.jpl.nasa.gov 6775    (via command-line)
     Author     : Jon.Giorgini@jpl.nasa.gov
*******************************************************************************
